ONEWEB-0410             
1 51622U 22012A   23350.55316264 -.00008990  00000+0 -23239-1 0  9995
2 51622  87.9198 187.4912 0002273  57.6666 302.4685 13.17563372 93381
ONEWEB-0411             
1 51623U 22012B   23350.54843025  .00000641  00000+0  17998-2 0  9994
2 51623  87.8914 217.7104 0001749  88.5383 271.5945 13.10373076 89634
ONEWEB-0415             
1 51624U 22012C   23350.54516393  .00000566  00000+0  15840-2 0  9990
2 51624  87.8917 217.7397 0001772  84.0314 276.1015 13.10377220 89637
ONEWEB-0416             
1 51625U 22012D   23350.55654772  .00000576  00000+0  16145-2 0  9996
2 51625  87.8913 217.7232 0001412  77.8822 282.2463 13.10371201 89679
ONEWEB-0422             
1 51626U 22012E   23350.56176846 -.00016175  00000+0 -41885-1 0  9991
2 51626  87.9227 187.4961 0000909  69.3501 290.7728 13.17456789 94778
ONEWEB-0423             
1 51627U 22012F   23350.63141035 -.00021135  00000+0 -54759-1 0  9998
2 51627  87.9182 187.4668 0001058  59.9109 300.2127 13.17443809 94687
ONEWEB-0425             
1 51628U 22012G   23350.56629492  .00000245  00000+0  66618-3 0  9995
2 51628  87.8910 217.7108 0001262  61.9310 298.1945 13.10368443 89675
ONEWEB-0428             
1 51629U 22012H   23350.54680576  .00000581  00000+0  16283-2 0  9999
2 51629  87.8913 217.7277 0001362  93.3220 266.8063 13.10372941 89633
